[{"OBJECT_NAME":"STARLINK-30074","OBJECT_ID":"2023-113P","EPOCH":"2026-03-09T22:00:01.999584","MEAN_MOTION":15.22038935,"ECCENTRICITY":0.00020108,"INCLINATION":42.9996,"RA_OF_ASC_NODE":14.6701,"ARG_OF_PERICENTER":257.9675,"MEAN_ANOMALY":10.6717,"EPHEMERIS_TYPE":0,"CLASSIFICATION_TYPE":"U","NORAD_CAT_ID":57508,"ELEMENT_SET_NO":999,"REV_AT_EPOCH":578,"BSTAR":0.037058477,"MEAN_MOTION_DOT":0.0093455,"MEAN_MOTION_DDOT":0},{"OBJECT_NAME":"CZ-2F DEB","OBJECT_ID":"2026-024E","EPOCH":"2026-03-09T06:46:05.636352","MEAN_MOTION":15.25893319,"ECCENTRICITY":0.0230643,"INCLINATION":50.3206,"RA_OF_ASC_NODE":20.6889,"ARG_OF_PERICENTER":278.3013,"MEAN_ANOMALY":79.1857,"EPHEMERIS_TYPE":0,"CLASSIFICATION_TYPE":"U","NORAD_CAT_ID":67718,"ELEMENT_SET_NO":999,"REV_AT_EPOCH":457,"BSTAR":0.0044193489,"MEAN_MOTION_DOT":0.00260029,"MEAN_MOTION_DDOT":0}]
